[{"OBJECT_NAME":"TDRS 11","OBJECT_ID":"2013-004A","EPOCH":"2026-03-03T17:33:56.393280","MEAN_MOTION":1.0027633,"ECCENTRICITY":0.0003936,"INCLINATION":3.3663,"RA_OF_ASC_NODE":29.339,"ARG_OF_PERICENTER":350.2034,"MEAN_ANOMALY":231.073,"EPHEMERIS_TYPE":0,"CLASSIFICATION_TYPE":"U","NORAD_CAT_ID":39070,"ELEMENT_SET_NO":999,"REV_AT_EPOCH":4563,"BSTAR":0,"MEAN_MOTION_DOT":6.8e-7,"MEAN_MOTION_DDOT":0},{"OBJECT_NAME":"TDRS 12","OBJECT_ID":"2014-004A","EPOCH":"2026-03-03T19:00:54.878112","MEAN_MOTION":1.00270286,"ECCENTRICITY":0.0003953,"INCLINATION":3.8752,"RA_OF_ASC_NODE":17.229,"ARG_OF_PERICENTER":267.2789,"MEAN_ANOMALY":121.3771,"EPHEMERIS_TYPE":0,"CLASSIFICATION_TYPE":"U","NORAD_CAT_ID":39504,"ELEMENT_SET_NO":999,"REV_AT_EPOCH":4322,"BSTAR":0,"MEAN_MOTION_DOT":-2.81e-6,"MEAN_MOTION_DDOT":0},{"OBJECT_NAME":"GPM-CORE","OBJECT_ID":"2014-009C","EPOCH":"2026-03-03T18:05:22.969248","MEAN_MOTION":15.44599289,"ECCENTRICITY":0.0012446,"INCLINATION":64.9737,"RA_OF_ASC_NODE":301.3705,"ARG_OF_PERICENTER":264.4988,"MEAN_ANOMALY":95.4733,"EPHEMERIS_TYPE":0,"CLASSIFICATION_TYPE":"U","NORAD_CAT_ID":39574,"ELEMENT_SET_NO":999,"REV_AT_EPOCH":68152,"BSTAR":0.00032596,"MEAN_MOTION_DOT":0.00015067,"MEAN_MOTION_DDOT":0},{"OBJECT_NAME":"MMS 1","OBJECT_ID":"2015-011A","EPOCH":"2026-03-03T22:00:03.000096","MEAN_MOTION":0.28063992,"ECCENTRICITY":0.8422826,"INCLINATION":70.718,"RA_OF_ASC_NODE":350.2284,"ARG_OF_PERICENTER":165.3132,"MEAN_ANOMALY":0.8896,"EPHEMERIS_TYPE":0,"CLASSIFICATION_TYPE":"U","NORAD_CAT_ID":40482,"ELEMENT_SET_NO":999,"REV_AT_EPOCH":133,"BSTAR":0,"MEAN_MOTION_DOT":-1.995e-5,"MEAN_MOTION_DDOT":0},{"OBJECT_NAME":"MMS 2","OBJECT_ID":"2015-011B","EPOCH":"2026-03-03T22:00:03.000096","MEAN_MOTION":0.28070726,"ECCENTRICITY":0.8423305,"INCLINATION":70.7187,"RA_OF_ASC_NODE":350.2305,"ARG_OF_PERICENTER":165.3185,"MEAN_ANOMALY":0.874,"EPHEMERIS_TYPE":0,"CLASSIFICATION_TYPE":"U","NORAD_CAT_ID":40483,"ELEMENT_SET_NO":999,"REV_AT_EPOCH":133,"BSTAR":0,"MEAN_MOTION_DOT":-1.994e-5,"MEAN_MOTION_DDOT":0},{"OBJECT_NAME":"MMS 3","OBJECT_ID":"2015-011C","EPOCH":"2026-03-03T22:00:03.000096","MEAN_MOTION":0.28063036,"ECCENTRICITY":0.842287,"INCLINATION":70.7206,"RA_OF_ASC_NODE":350.2352,"ARG_OF_PERICENTER":165.3137,"MEAN_ANOMALY":0.8818,"EPHEMERIS_TYPE":0,"CLASSIFICATION_TYPE":"U","NORAD_CAT_ID":40484,"ELEMENT_SET_NO":999,"REV_AT_EPOCH":133,"BSTAR":0,"MEAN_MOTION_DOT":-1.995e-5,"MEAN_MOTION_DDOT":0},{"OBJECT_NAME":"MMS 4","OBJECT_ID":"2015-011D","EPOCH":"2026-03-03T22:00:03.000096","MEAN_MOTION":0.28070154,"ECCENTRICITY":0.8422113,"INCLINATION":70.7191,"RA_OF_ASC_NODE":350.2303,"ARG_OF_PERICENTER":165.3201,"MEAN_ANOMALY":0.8683,"EPHEMERIS_TYPE":0,"CLASSIFICATION_TYPE":"U","NORAD_CAT_ID":40485,"ELEMENT_SET_NO":999,"REV_AT_EPOCH":133,"BSTAR":0,"MEAN_MOTION_DOT":-1.994e-5,"MEAN_MOTION_DDOT":0},{"OBJECT_NAME":"TDRS 13","OBJECT_ID":"2017-047A","EPOCH":"2026-03-03T19:09:24.064416","MEAN_MOTION":1.00272139,"ECCENTRICITY":0.0010166,"INCLINATION":3.4295,"RA_OF_ASC_NODE":0.05,"ARG_OF_PERICENTER":99.2582,"MEAN_ANOMALY":338.1197,"EPHEMERIS_TYPE":0,"CLASSIFICATION_TYPE":"U","NORAD_CAT_ID":42915,"ELEMENT_SET_NO":999,"REV_AT_EPOCH":3129,"BSTAR":0,"MEAN_MOTION_DOT":-1.11e-6,"MEAN_MOTION_DDOT":0},{"OBJECT_NAME":"NOAA 20 (JPSS-1)","OBJECT_ID":"2017-073A","EPOCH":"2026-03-03T20:05:29.808384","MEAN_MOTION":14.19534278,"ECCENTRICITY":9.31e-5,"INCLINATION":98.7686,"RA_OF_ASC_NODE":3.2827,"ARG_OF_PERICENTER":145.493,"MEAN_ANOMALY":214.6307,"EPHEMERIS_TYPE":0,"CLASSIFICATION_TYPE":"U","NORAD_CAT_ID":43013,"ELEMENT_SET_NO":999,"REV_AT_EPOCH":42952,"BSTAR":6.8042e-5,"MEAN_MOTION_DOT":9.9e-7,"MEAN_MOTION_DDOT":0}]
